NORAD_CAT_ID,OBJECT_NAME,OBJECT_TYPE,EPOCH,MEAN_MOTION,ECCENTRICITY,INCLINATION,RA_OF_ASC_NODE,ARG_OF_PERICENTER,MEAN_ANOMALY,BSTAR,MEAN_MOTION_DOT,MEAN_MOTION_DDOT,TLE_LINE0,TLE_LINE1,TLE_LINE2,SEMIMAJOR_AXIS,PERIOD,APOGEE,PERIGEE,DECAYED
55633.0,STARLINK-5498,PAYLOAD,2024-07-03 17:33:56,14.98328103,0.000275,70.0009,312.4473,265.1091,94.9754,6.675e-05,7.04e-06,0.0,0 STARLINK-5498,1 55633U 23021F   24185.73190438  .00000704  00000-0  66750-4 0  9994,2 55633  70.0009 312.4473 0002750 265.1091  94.9754 14.98328103 76338,6950.199,96.107,573.975,570.152,0.0
55633.0,STARLINK-5498,PAYLOAD,2024-07-04 12:47:33,14.98328415,0.0002853,70.0007,310.4272,269.7092,90.374,2.743e-05,2.34e-06,0.0,0 STARLINK-5498,1 55633U 23021F   24186.53302510  .00000234  00000-0  27430-4 0  9999,2 55633  70.0007 310.4272 0002853 269.7092  90.3740 14.98328415 76157,6950.198,96.107,574.046,570.08,0.0
55633.0,STARLINK-5498,PAYLOAD,2024-07-04 14:23:41,14.98329346,0.0002849,70.0007,310.2587,270.2783,89.805,3.5627e-05,3.32e-06,0.0,0 STARLINK-5498,1 55633U 23021F   24186.59978432  .00000332  00000-0  35627-4 0  9993,2 55633  70.0007 310.2587 0002849 270.2783  89.8050 14.98329346 76468,6950.195,96.107,574.04,570.08,0.0
55633.0,STARLINK-5498,PAYLOAD,2024-07-04 19:12:05,14.9833143,0.0002849,70.0007,309.7537,269.6477,90.4355,5.2948e-05,5.39e-06,0.0,0 STARLINK-5498,1 55633U 23021F   24186.80006248  .00000539  00000-0  52948-4 0  9998,2 55633  70.0007 309.7537 0002849 269.6477  90.4355 14.98331430 76494,6950.188,96.107,574.034,570.073,0.0
55633.0,STARLINK-5498,PAYLOAD,2024-07-05 12:49:33,14.98331387,0.0003022,70.0004,307.9018,271.4754,88.6059,0.00014277,1.611e-05,0.0,0 STARLINK-5498,1 55633U 23021F   24187.53442085  .00001611  00000-0  14277-3 0  9996,2 55633  70.0004 307.9018 0003022 271.4754  88.6059 14.98331387 76309,6950.189,96.107,574.154,569.953,0.0
55633.0,STARLINK-5498,PAYLOAD,2024-07-05 14:25:41,14.98335518,0.0002984,70.0005,307.7334,269.7023,90.3794,0.00014662,1.657e-05,0.0,0 STARLINK-5498,1 55633U 23021F   24187.60117791  .00001657  00000-0  14662-3 0  9995,2 55633  70.0005 307.7334 0002984 269.7023  90.3794 14.98335518 76614,6950.176,96.107,574.115,569.967,0.0
55633.0,STARLINK-5498,PAYLOAD,2024-07-05 17:37:57,14.98336976,0.0002978,70.0005,307.3968,269.7877,90.2941,0.0001596,1.812e-05,0.0,0 STARLINK-5498,1 55633U 23021F   24187.73469646  .00001812  00000-0  15960-3 0  9993,2 55633  70.0005 307.3968 0002978 269.7877  90.2941 14.98336976 76637,6950.171,96.107,574.106,569.967,0.0
55633.0,STARLINK-5498,PAYLOAD,2024-07-06 12:51:35,14.98324222,0.0003152,70.0006,305.3761,269.6935,90.3863,7.8915e-05,8.49e-06,0.0,0 STARLINK-5498,1 55633U 23021F   24188.53582512  .00000849  00000-0  78915-4 0  9999,2 55633  70.0006 305.3761 0003152 269.6935  90.3863 14.98324222 76451,6950.211,96.107,574.266,569.885,0.0
55633.0,STARLINK-5498,PAYLOAD,2024-07-06 14:27:43,14.98328552,0.0002773,70.0006,305.2072,262.0873,97.9972,8.5146e-05,9.23e-06,0.0,0 STARLINK-5498,1 55633U 23021F   24188.60258214  .00000923  00000-0  85146-4 0  9993,2 55633  70.0006 305.2072 0002773 262.0873  97.9972 14.98328552 76769,6950.197,96.107,573.99,570.135,0.0
55633.0,STARLINK-5498,PAYLOAD,2024-07-06 17:39:59,14.98327299,0.0002872,70.0006,304.8706,264.5948,95.4884,8.2923e-05,8.97e-06,0.0,0 STARLINK-5498,1 55633U 23021F   24188.73610293  .00000897  00000-0  82923-4 0  9996,2 55633  70.0006 304.8706 0002872 264.5948  95.4884 14.98327299 76782,6950.201,96.107,574.062,570.07,0.0
55633.0,STARLINK-5498,PAYLOAD,2024-07-07 12:53:35,14.98332653,0.0003113,70.0001,302.851,268.9939,91.0863,7.024e-05,7.45e-06,0.0,0 STARLINK-5498,1 55633U 23021F   24189.53721922  .00000745  00000-0  70240-4 0  9998,2 55633  70.0001 302.8510 0003113 268.9939  91.0863 14.98332653 76605,6950.185,96.107,574.213,569.886,0.0
55633.0,STARLINK-5498,PAYLOAD,2024-07-08 12:55:36,14.98329199,0.000305,70.0004,300.3262,268.2269,91.8541,6.9473e-05,7.36e-06,0.0,0 STARLINK-5498,1 55633U 23021F   24190.53862070  .00000736  00000-0  69473-4 0  9996,2 55633  70.0004 300.3262 0003050 268.2269  91.8541 14.98329199 76752,6950.195,96.107,574.18,569.941,0.0
55633.0,STARLINK-5498,PAYLOAD,2024-07-08 14:31:44,14.98334584,0.0003127,70.0001,300.1582,268.644,91.4361,9.7926e-05,1.076e-05,0.0,0 STARLINK-5498,1 55633U 23021F   24190.60537638  .00001076  00000-0  97926-4 0  9995,2 55633  70.0001 300.1582 0003127 268.6440  91.4361 14.98334584 77067,6950.179,96.107,574.217,569.87,0.0
55633.0,STARLINK-5498,PAYLOAD,2024-07-08 17:44:00,14.98335571,0.0003128,70.0001,299.8216,268.6847,91.3953,0.00010674,1.181e-05,0.0,0 STARLINK-5498,1 55633U 23021F   24190.73889534  .00001181  00000-0  10674-3 0  9995,2 55633  70.0001 299.8216 0003128 268.6847  91.3953 14.98335571 77082,6950.176,96.107,574.215,569.867,0.0
55633.0,STARLINK-5498,PAYLOAD,2024-07-09 12:57:37,14.98332625,0.0002978,70.0005,297.802,271.7343,88.3475,3.5002e-05,3.25e-06,0.0,0 STARLINK-5498,1 55633U 23021F   24191.54001807  .00000325  00000-0  35002-4 0  9996,2 55633  70.0005 297.8020 0002978 271.7343  88.3475 14.98332625 76907,6950.185,96.107,574.12,569.98,0.0
55633.0,STARLINK-5498,PAYLOAD,2024-07-09 14:33:45,14.983323,0.000288,70.0007,297.6348,264.1306,95.9525,4.7841e-05,4.78e-06,0.0,0 STARLINK-5498,1 55633U 23021F   24191.60677741  .00000478  00000-0  47841-4 0  9992,2 55633  70.0007 297.6348 0002880 264.1306  95.9525 14.98332300 77212,6950.186,96.107,574.052,570.049,0.0
55633.0,STARLINK-5498,PAYLOAD,2024-07-09 16:09:53,14.98333458,0.0002873,70.0008,297.4665,263.9265,96.1566,5.963e-05,6.19e-06,0.0,0 STARLINK-5498,1 55633U 23021F   24191.67353623  .00000619  00000-0  59630-4 0  9995,2 55633  70.0008 297.4665 0002873 263.9265  96.1566 14.98333458 77220,6950.182,96.107,574.044,570.05,0.0
55633.0,STARLINK-5498,PAYLOAD,2024-07-10 12:59:38,14.98330038,0.0002954,70.0004,295.2776,269.2315,90.8505,2.2639e-05,1.77e-06,0.0,0 STARLINK-5498,1 55633U 23021F   24192.54141877  .00000177  00000-0  22639-4 0  9996,2 55633  70.0004 295.2776 0002954 269.2315  90.8505 14.98330038 77056,6950.193,96.107,574.111,570.005,0.0
55633.0,STARLINK-5498,PAYLOAD,2024-07-10 17:48:02,14.98330482,0.0002952,70.0003,294.7726,269.4898,90.5923,2.5205e-05,2.08e-06,0.0,0 STARLINK-5498,1 55633U 23021F   24192.74169836  .00000208  00000-0  25205-4 0  9990,2 55633  70.0003 294.7726 0002952 269.4898  90.5923 14.98330482 77380,6950.191,96.107,574.108,570.005,0.0
55633.0,STARLINK-5498,PAYLOAD,2024-07-11 14:37:48,14.98316213,0.0003016,70.0002,292.5844,270.6053,89.4761,-0.00013039,-1.648e-05,0.0,0 STARLINK-5498,1 55633U 23021F   24193.60959363 -.00001648  00000-0 -13039-3 0  9990,2 55633  70.0002 292.5844 0003016 270.6053  89.4761 14.98316213 77513,6950.236,96.108,574.197,570.004,0.0
55633.0,STARLINK-5498,PAYLOAD,2024-07-12 13:03:40,14.98335247,0.000328,69.9996,290.227,272.0093,88.069,0.00010925,1.211e-05,0.0,0 STARLINK-5498,1 55633U 23021F   24194.54421896  .00001211  00000-0  10925-3 0  9994,2 55633  69.9996 290.2270 0003280 272.0093  88.0690 14.98335247 77359,6950.177,96.107,574.321,569.762,0.0
55633.0,STARLINK-5498,PAYLOAD,2024-07-12 14:39:48,14.98335823,0.0003275,69.9996,290.0588,272.0746,88.0038,0.00011526,1.283e-05,0.0,0 STARLINK-5498,1 55633U 23021F   24194.61097837  .00001283  00000-0  11526-3 0  9993,2 55633  69.9996 290.0588 0003275 272.0746  88.0038 14.98335823 77668,6950.175,96.107,574.316,569.764,0.0
55633.0,STARLINK-5498,PAYLOAD,2024-07-12 16:15:56,14.98337685,0.0003256,69.9996,289.8904,272.047,88.0316,0.00013556,1.525e-05,0.0,0 STARLINK-5498,1 55633U 23021F   24194.67773654  .00001525  00000-0  13556-3 0  9991,2 55633  69.9996 289.8904 0003256 272.0470  88.0316 14.98337685 77677,6950.169,96.107,574.297,569.771,0.0
55633.0,STARLINK-5498,PAYLOAD,2024-07-13 13:05:41,14.98334309,0.0003244,69.9997,287.7022,271.8087,88.2701,0.00029679,3.45e-05,0.0,0 STARLINK-5498,1 55633U 23021F   24195.54561530  .00003450  00000-0  29679-3 0  9998,2 55633  69.9997 287.7022 0003244 271.8087  88.2701 14.98334309 77506,6950.18,96.107,574.299,569.79,0.0
55633.0,STARLINK-5498,PAYLOAD,2024-07-13 14:41:49,14.98336047,0.0003217,69.9998,287.5338,271.6579,88.4212,0.00031769,3.7e-05,0.0,0 STARLINK-5498,1 55633U 23021F   24195.61237414  .00003700  00000-0  31769-3 0  9998,2 55633  69.9998 287.5338 0003217 271.6579  88.4212 14.98336047 77813,6950.174,96.107,574.275,569.803,0.0
55633.0,STARLINK-5498,PAYLOAD,2024-07-13 16:17:57,14.98338263,0.0003212,69.9998,287.3654,271.5939,88.4853,0.00034404,4.015e-05,0.0,0 STARLINK-5498,1 55633U 23021F   24195.67913272  .00004015  00000-0  34404-3 0  9996,2 55633  69.9998 287.3654 0003212 271.5939  88.4853 14.98338263 77820,6950.167,96.106,574.265,569.8,0.0
55633.0,STARLINK-5498,PAYLOAD,2024-07-14 13:07:42,14.98339523,0.0003007,70.0005,285.18,264.3943,95.6873,3.6071e-05,3.38e-06,0.0,0 STARLINK-5498,1 55633U 23021F   24196.54701469  .00000338  00000-0  36071-4 0  9993,2 55633  70.0005 285.1800 0003007 264.3943  95.6873 14.98339523 77651,6950.163,96.106,574.118,569.939,0.0
55633.0,STARLINK-5498,PAYLOAD,2024-07-14 14:43:50,14.9834003,0.0002944,70.0006,285.0109,266.1625,93.9198,7.4483e-05,7.96e-06,0.0,0 STARLINK-5498,1 55633U 23021F   24196.61377319  .00000796  00000-0  74483-4 0  9991,2 55633  70.0006 285.0109 0002944 266.1625  93.9198 14.98340030 77969,6950.162,96.106,574.073,569.981,0.0
55633.0,STARLINK-5498,PAYLOAD,2024-07-14 16:19:57,14.98342888,0.000306,70.0003,284.842,267.6213,92.4596,7.1269e-05,7.58e-06,0.0,0 STARLINK-5498,1 55633U 23021F   24196.68053068  .00000758  00000-0  71269-4 0  9997,2 55633  70.0003 284.8420 0003060 267.6213  92.4596 14.98342888 77978,6950.153,96.106,574.145,569.891,0.0
55633.0,STARLINK-5498,PAYLOAD,2024-07-15 13:09:43,14.98336484,0.0003217,70.0006,282.6531,267.0747,93.0044,-9.2086e-05,-1.192e-05,0.0,0 STARLINK-5498,1 55633U 23021F   24197.54841445 -.00001192  00000-0 -92086-4 0  9992,2 55633  70.0006 282.6531 0003217 267.0747  93.0044 14.98336484 77802,6950.173,96.107,574.274,569.802,0.0
